Satellite: AO-07
Catalog number: 07530
Epoch time:      14121.04756154
Element set:     952
Inclination:      101.4684 deg
RA of node:       104.4379 deg
Eccentricity:    0.0012157
Arg of perigee:   029.3509 deg
Mean anomaly:     017.3099 deg
Mean motion:   12.53604514 rev/day
Decay rate:       -1.8e-07 rev/day^2
Epoch rev:           80561
Checksum:              276

Satellite: FO-29
Catalog number: 24278
Epoch time:      14121.11401091
Element set:     363
Inclination:      098.5145 deg
RA of node:       141.4637 deg
Eccentricity:    0.0351289
Arg of perigee:   059.9202 deg
Mean anomaly:     343.1058 deg
Mean motion:   13.53022603 rev/day
Decay rate:       -3.9e-07 rev/day^2
Epoch rev:           87430
Checksum:              280

Satellite: SO-33
Catalog number: 25509
Epoch time:      14121.28473594
Element set:     741
Inclination:      031.4320 deg
RA of node:       066.1322 deg
Eccentricity:    0.0349518
Arg of perigee:   063.4978 deg
Mean anomaly:     057.9211 deg
Mean motion:   14.29515181 rev/day
Decay rate:       6.55e-06 rev/day^2
Epoch rev:           81043
Checksum:              294

Satellite: RS-22
Catalog number: 27939
Epoch time:      14121.72601680
Element set:     448
Inclination:      097.8067 deg
RA of node:       298.1889 deg
Eccentricity:    0.0012267
Arg of perigee:   255.5010 deg
Mean anomaly:     104.4841 deg
Mean motion:   14.65141510 rev/day
Decay rate:       8.22e-06 rev/day^2
Epoch rev:           56592
Checksum:              306

Satellite: VO-52
Catalog number: 28650
Epoch time:      14121.06732518
Element set:     724
Inclination:      097.5601 deg
RA of node:       128.3943 deg
Eccentricity:    0.0023732
Arg of perigee:   316.0153 deg
Mean anomaly:     043.9173 deg
Mean motion:   14.85337479 rev/day
Decay rate:      2.349e-05 rev/day^2
Epoch rev:           48623
Checksum:              304

Satellite: HO-68
Catalog number: 36122
Epoch time:      14121.74616435
Element set:     545
Inclination:      100.2526 deg
RA of node:       175.0288 deg
Eccentricity:    0.0007296
Arg of perigee:   346.1127 deg
Mean anomaly:     013.9770 deg
Mean motion:   13.16314813 rev/day
Decay rate:       -4.3e-07 rev/day^2
Epoch rev:           21032
Checksum:              267

Satellite: AO-73
Catalog number: 39444
Epoch time:      14120.97683810
Element set:     130
Inclination:      097.7743 deg
RA of node:       193.2331 deg
Eccentricity:    0.0063001
Arg of perigee:   038.0952 deg
Mean anomaly:     322.4603 deg
Mean motion:   14.78159170 rev/day
Decay rate:      2.895e-05 rev/day^2
Epoch rev:            2249
Checksum:              297

/EX
SB KEPS @ AMSAT  $ORB14121.D
Orbital Elements  14121.MICROS

HR AMSAT ORBITAL ELEMENTS FOR THE MICROSATS
FROM WA5QGD FORT WORTH,TX May 1, 2014
BID: ORB14121.D
TO ALL RADIO AMATEURS BT

Satellite: UO-11
Catalog number: 14781
Epoch time:      14121.16127018
Element set:     478
Inclination:      097.8562 deg
RA of node:       182.1954 deg
Eccentricity:    0.0007745
Arg of perigee:   342.4290 deg
Mean anomaly:     017.6654 deg
Mean motion:   14.81537936 rev/day
Decay rate:       6.08e-06 rev/day^2
Epoch rev:           62100
Checksum:              300

Satellite: AO-16
Catalog number: 20439
Epoch time:      14120.80759042
Element set:      11
Inclination:      098.5045 deg
RA of node:       059.0419 deg
Eccentricity:    0.0009709
Arg of perigee:   302.1218 deg
Mean anomaly:     111.0309 deg
Mean motion:   14.32342640 rev/day
Decay rate:       1.73e-06 rev/day^2
Epoch rev:           26770
Checksum:              258

Satellite: LO-19
Catalog number: 20442
Epoch time:      14121.13909501
Element set:     949
Inclination:      098.4752 deg
RA of node:       060.1645 deg
Eccentricity:    0.0010589
Arg of perigee:   288.8880 deg
Mean anomaly:     071.1156 deg
Mean motion:   14.32546080 rev/day
Decay rate:       1.28e-06 rev/day^2
Epoch rev:           26794
Checksum:              306

Satellite: AO-27
Catalog number: 22825
Epoch time:      14120.81042859
Element set:     654
Inclination:      098.6586 deg
RA of node:       067.1533 deg
Eccentricity:    0.0009538
Arg of perigee:   080.0039 deg
Mean anomaly:     332.2895 deg
Mean motion:   14.29707596 rev/day
Decay rate:       1.45e-06 rev/day^2
Epoch rev:            7401
Checksum:              314

Satellite: IO-26
Catalog number: 22826
Epoch time:      14121.08543514
Element set:     411
Inclination:      098.6528 deg
RA of node:       067.6539 deg
Eccentricity:    0.0010045
Arg of perigee:   072.7271 deg
Mean anomaly:     287.5009 deg
Mean motion:   14.30006799 rev/day
Decay rate:       1.54e-06 rev/day^2
Epoch rev:            7418
Checksum:              293

Satellite: GO-32
Catalog number: 25397
Epoch time:      14121.49741644
Element set:     335
Inclination:      098.4642 deg
RA of node:       081.2386 deg
Eccentricity:    0.0002508
Arg of perigee:   095.4810 deg
Mean anomaly:     018.3743 deg
Mean motion:   14.23437154 rev/day
Decay rate:        5.9e-07 rev/day^2
Epoch rev:           82122
Checksum:              293

Satellite: NO-44
Catalog number: 26931
Epoch time:      14121.53794821
Element set:     591
Inclination:      067.0503 deg
RA of node:       158.7498 deg
Eccentricity:    0.0005904
Arg of perigee:   281.4741 deg
Mean anomaly:     078.5697 deg
Mean motion:   14.30101773 rev/day
Decay rate:        8.7e-07 rev/day^2
Epoch rev:           65693
Checksum:              324

Satellite: SO-50
Catalog number: 27607
Epoch time:      14121.80574979
Element set:     379
Inclination:      064.5579 deg
RA of node:       013.7256 deg
Eccentricity:    0.0042050
Arg of perigee:   026.0114 deg
Mean anomaly:     334.3088 deg
Mean motion:   14.73704768 rev/day
Decay rate:       6.69e-06 rev/day^2
Epoch rev:           61064
Checksum:              313

Satellite: CO-55
Catalog number: 27844
Epoch time:      14121.82879808
Element set:     913
Inclination:      098.6987 deg
RA of node:       131.2687 deg
Eccentricity:    0.0010521
Arg of perigee:   055.4258 deg
Mean anomaly:     068.9051 deg
Mean motion:   14.21482289 rev/day
Decay rate:       2.63e-06 rev/day^2
Epoch rev:           56199
Checksum:              341

Satellite: CO-57
Catalog number: 27848
Epoch time:      14120.96588086
Element set:     854
Inclination:      098.7081 deg
RA of node:       130.1034 deg
Eccentricity:    0.0010558
Arg of perigee:   063.6668 deg
Mean anomaly:     355.5488 deg
Mean motion:   14.21172148 rev/day
Decay rate:       2.07e-06 rev/day^2
Epoch rev:           56179
Checksum:              331

