DECODE 2-LINE ELSETS WITH THE FOLLOWING KEY:
1 AAAAAU 00  0  0 BBBBB.BBBBBBBB  .CCCCCCCC  00000-0  00000-0 0  DDDZ
2 AAAAA EEE.EEEE FFF.FFFF GGGGGGG HHH.HHHH III.IIII JJ.JJJJJJJJKKKKKZ
KEY: A-CATALOGNUM B-EPOCHTIME C-DECAY D-ELSETNUM E-INCLINATION F-RAAN
G-ECCENTRICITY H-ARGPERIGEE I-MNANOM J-MNMOTION K-ORBITNUM Z-CHECKSUM

TO ALL RADIO AMATEURS BT

AO-07
1 07530U 74089B   14121.04756154 -.00000018  00000-0  15895-3 0  9524
2 07530 101.4684 104.4379 0012157 029.3509 017.3099 12.53604514805613
FO-29
1 24278U 96046B   14121.11401091 -.00000039  00000-0 -56399-5 0  3630
2 24278 098.5145 141.4637 0351289 059.9202 343.1058 13.53022603874309
SO-33
1 25509U 98061B   14121.28473594  .00000655  00000-0  11905-3 0  7416
2 25509 031.4320 066.1322 0349518 063.4978 057.9211 14.29515181810431
RS-22
1 27939U 03042A   14121.72601680  .00000822  00000-0  16108-3 0  4488
2 27939 097.8067 298.1889 0012267 255.5010 104.4841 14.65141510565927
VO-52
1 28650U 05017B   14121.06732518  .00002349  00000-0  27777-3 0  7242
2 28650 097.5601 128.3943 0023732 316.0153 043.9173 14.85337479486238
HO-68
1 36122U 09072B   14121.74616435 -.00000043  00000-0  00000 0 0  5451
2 36122 100.2526 175.0288 0007296 346.1127 013.9770 13.16314813210327
AO-73
1 39444U 13066AE  14120.97683810  .00002895  00000-0  39374-3 0  1300
2 39444 097.7743 193.2331 0063001 038.0952 322.4603 14.78159170 22492
UO-11
1 14781U 84021B   14121.16127018  .00000608  00000-0  84130-4 0  4787
2 14781 097.8562 182.1954 0007745 342.4290 017.6654 14.81537936621002
AO-16
1 20439U 90005D   14120.80759042  .00000173  00000-0  80054-4 0   112
2 20439 098.5045 059.0419 0009709 302.1218 111.0309 14.32342640267707
LO-19
1 20442U 90005G   14121.13909501  .00000128  00000-0  63058-4 0  9495
2 20442 098.4752 060.1645 0010589 288.8880 071.1156 14.32546080267948
AO-27
1 22825U 93061C   14120.81042859  .00000145  00000-0  73617-4 0  6549
2 22825 098.6586 067.1533 0009538 080.0039 332.2895 14.29707596 74017
IO-26
1 22826U 93061D   14121.08543514  .00000154  00000-0  76651-4 0  4116
2 22826 098.6528 067.6539 0010045 072.7271 287.5009 14.30006799 74182
GO-32
1 25397U 98043D   14121.49741644  .00000059  00000-0  44224-4 0  3356
2 25397 098.4642 081.2386 0002508 095.4810 018.3743 14.23437154821226
NO-44
1 26931U 01043C   14121.53794821  .00000087  00000-0  65638-4 0  5912
2 26931 067.0503 158.7498 0005904 281.4741 078.5697 14.30101773656939
SO-50
1 27607U 02058C   14121.80574979  .00000669  00000-0  12184-3 0  3797
2 27607 064.5579 013.7256 0042050 026.0114 334.3088 14.73704768610642
CO-55
1 27844U 03031E   14121.82879808  .00000263  00000-0  14013-3 0  9130
2 27844 098.6987 131.2687 0010521 055.4258 068.9051 14.21482289561990
CO-57
1 27848U 03031J   14120.96588086  .00000207  00000-0  11536-3 0  8542
2 27848 098.7081 130.1034 0010558 063.6668 355.5488 14.21172148561797
